0 COSMOS 2181
1 21902U 92012A   13281.49441481  .00000048  00000-0  36451-4 0  3076
2 21902 082.9410 125.7896 0028120 354.5658 065.8645 13.72290362 80925
0 COSMOS 2181
1 21902U 92012A   13282.51058336  .00000056  00000-0  45293-4 0  3087
2 21902 082.9408 125.0403 0028051 351.7187 046.0121 13.72290426 81065
0 COSMOS 2181
1 21902U 92012A   13283.67827035  .00000069  00000-0  59270-4 0  3090
2 21902 082.9407 124.1792 0027985 348.4535 054.6959 13.72290496 81229
0 COSMOS 2181
1 21902U 92012A   13286.10591288  .00000053  00000-0  41540-4 0  3116
2 21902 082.9403 122.3888 0027844 341.5140 168.0446 13.72290789 81553
0 COSMOS 2181
1 21902U 92012A   13287.12477951  .00000052  00000-0  40289-4 0  3128
2 21902 082.9403 121.6373 0027791 338.5936 161.5882 13.72291048 81690
0 COSMOS 2181
1 21902U 92012A   13288.49386664  .00000043  00000-0  30403-4 0  3137
2 21902 082.9402 120.6276 0027718 334.6625 085.3461 13.72291323 81884
0 COSMOS 2181
1 21902U 92012A   13289.50818501  .00000034  00000-0  20722-4 0  3144
2 21902 082.9403 119.8794 0027656 331.7699 056.4067 13.72291411 82026
0 COSMOS 2181
1 21902U 92012A   13290.60816704  .00000017  00000-0  18409-5 0  3152
2 21902 082.9403 119.0680 0027598 328.5947 090.7117 13.72291429 82179
0 COSMOS 2181
1 21902U 92012A   13291.69953772  .00000022  00000-0  75959-5 0  3169
2 21902 082.9404 118.2631 0027556 325.4657 082.4536 13.72291435 82322
0 COSMOS 2181
1 21902U 92012A   13293.10346407  .00000031  00000-0  17281-4 0  3172
2 21902 082.9406 117.2276 0027503 321.4215 178.3450 13.72291353 82516
0 COSMOS 2181
1 21902U 92012A   13294.47227984  .00000047  00000-0  34781-4 0  3183
2 21902 082.9406 116.2181 0027454 317.4555 100.8012 13.72291335 82702
0 COSMOS 2181
1 21902U 92012A   13295.49239260  .00000061  00000-0  50792-4 0  3193
2 21902 082.9405 115.4657 0027399 314.4850 100.5506 13.72291311 82847
